D7044   16.6   0.15 K156R 262.88779  166.12578  335.12595    4.38531  0.4295827  0.28842327   2.2687285  0 MPO310109   327   7 1998-2014 0.40 M-v 38h MPCLINUX   1804 (137044) 1998 UC50          20140825
D7052   16.9   0.15 K156R   9.53306  209.88460   64.31192   14.91394  0.8094862  0.70691225   1.2480320  2 MPO333851   717  14 1998-2015 0.52 M-h 3Eh MPCLINUX   1803 (137052) Tjelvar            20150118
D7062   16.6   0.15 K156R 317.90605  172.52252   45.65648   22.51554  0.3152878  0.72736707   1.2245230  1 MPO333851   775  10 1987-2015 0.48 M-h 3Eh MPCLINUX   1803 (137062) 1998 WM            20150214
D7064   18.9   0.15 K156R  58.46151   97.56040   36.14850   19.50260  0.1951871  0.61186673   1.3741416  1 MPO333851   231   6 1998-2014 0.52 M-v 38h MPCLINUX   0804 (137064) 1998 WP5           20141214
D7078   16.2   0.15 K156R  81.79438    9.49243  324.51014   23.20818  0.6388356  0.36535932   1.9378609  1 MPO329957   203  13 1998-2015 0.55 M-h 3Eh MPCLINUX   1803 (137078) 1998 XZ4           20150210
D7084   16.3   0.15 K156R 327.87149  358.28506  273.01147   26.55319  0.4965237  0.73841288   1.2122807  2 MPO329957   965  15 1994-2015 0.48 M-h 3Eh MPCLINUX   1803 (137084) 1998 XS16          20150128
D7099   18.2   0.15 K156R 264.76887  194.82392   94.29284   28.79283  0.4626809  0.85420371   1.1000905  2 MPO329957   271  11 1998-2015 0.52 M-h 3Eh MPCLINUX   1803 (137099) 1998 YW3           20150201
D7108   17.9   0.15 K156R  74.80288  268.30278  314.40970   39.93267  0.5620415  0.55938662   1.4587963  1 MPO257634   164   7 1955-2013 0.47 M-h 3Eh MPCLINUX   9803 (137108) 1999 AN10          20130304
D7120   18.1   0.15 K156R  72.84975  221.79838  339.63329    8.99258  0.5499623  0.37642560   1.8996924  0 MPO273221   299   7 1999-2013 0.45 M-h 3Eh MPCLINUX   9803 (137120) 1999 BJ8           20131012
D7125   18.5   0.15 K156R 134.39690  268.23974  321.94247   34.23640  0.1318620  0.57830511   1.4268052  1 MPO270664   122   6 1999-2013 0.61 M-v 38h MPCLINUX   0804 (137125) 1999 CT3           20130901
D7126   18.0   0.15 K156R 301.63600   90.21472  157.11108    5.54699  0.6001392  0.41747348   1.7730329  0 MPO280702   620  10 1999-2013 0.49 M-h 3Eh MPCLINUX   9803 (137126) 1999 CF9           20131031
D7158   17.9   0.15 K156R 319.16864    2.99245   37.13653   12.89725  0.6068562  0.76890125   1.1800190  2 MPO264233   220  12 1998-2013 0.53 M-h 3Eh MPCLINUX   1803 (137158) 1999 FB            20130521
D7170   14.5   0.15 K156R  49.04017  253.37850  155.89155   25.66278  0.4624145  1.32948396   0.8191196  2 MPO306064  2745  15 1999-2014 0.39 M-h 3Eh MPCLINUX   1802 (137170) 1999 HF1           20140711
D7175   18.4   0.15 K156R 249.95198  328.28632  116.28308   16.43255  0.3411079  0.69576517   1.2613267  1 MPO260081   146   9 1999-2013 0.45 M-h 3Eh MPCLINUX   0803 (137175) 1999 JA11          20130416
D7199   16.9   0.15 K156R 106.89270   76.38433  104.95303   16.57048  0.2925598  0.56029113   1.4572259  0 MPO270665   805   9 1978-2013 0.45 M-h 3Eh MPCLINUX   1804 (137199) 1999 KX4           20130713
D7427   15.2   0.15 K156R 337.72528  161.78696  348.15085   39.19160  0.6103739  0.25737427   2.4477063  0 MPO314286   319   8 1999-2014 0.46 M-h 3Eh MPCLINUX   9803 (137427) 1999 TF211         20141028
D7671   18.5   0.15 K156R   9.08577  198.24833  263.48533   21.10343  0.1841581  0.57358560   1.4346211  1 MPO302689   191   8 1976-2014 0.43 M-v 38h MPCLINUX   0804 (137671) 1999 XP35          20140726
D7799   18.5   0.15 K156R 313.60103  192.69102   31.00178    6.79038  0.0748924  0.64892742   1.3213118  2 MPO329965   474   7 1991-2014 0.46 M-v 38h MPCLINUX   0804 (137799) 1999 YB            20141215
D7802   16.9   0.15 K156R 238.71655  272.57972  116.47538   31.58402  0.3520699  0.41631014   1.7763344  1 MPO329965   309  11 1954-2015 0.53 M-v 38h MPCLINUX   1804 (137802) 1999 YT            20150301
D7805   16.6   0.15 K156R 333.73149  292.83959  349.58723   16.74202  0.5583333  1.30511835   0.8292830  2 MPO329965   678  12 1999-2015 0.53 M-h 3Eh MPCLINUX   1802 (137805) 1999 YK5           20150128
D7911   17.6   0.15 K156R 167.65876  312.05255   29.50136    3.74994  0.4925902  0.28108802   2.3080284  0 MPO310112    92   7 2000-2014 0.35 M-v 38h MPCLINUX   1804 (137911) 2000 AB246         20140125
D7924   17.2   0.15 K156R  88.72825  324.31762  333.73149   25.71695  0.8950257  1.20116493   0.8764644  0 MPO333861   516  15 1997-2015 0.50 M-v 3Eh MPCW       1802 (137924) 2000 BD19          20150314
D7925   15.9   0.15 K156R  24.07150  175.49793  131.24278   31.11555  0.7638965  0.67132096   1.2917622  2 MPO333861   868  13 1997-2015 0.43 M-h 3Eh MPCLINUX   1803 (137925) 2000 BJ19          20150329
D8013   14.6   0.15 K156R  86.90527  118.63691  183.41728   15.96939  0.6351826  0.48797865   1.5978481  2 MPO320518   469  16 1984-2014 0.56 M-h 3Eh MPCLINUX   1803 (138013) 2000 CN101         20140314
D8095   15.9   0.15 K156R 245.03938    2.49555   43.47546   60.67836  0.4142728  0.41622127   1.7765872  0 MPO310113   328   8 2000-2013 0.46 M-h 3Eh MPCLINUX   1804 (138095) 2000 DK79          20131216
D8127   17.1   0.15 K156R 332.37283  197.82525  155.77300   26.46453  0.5330586  1.83057330   0.6618272  3 MPO333863   338  13 2000-2015 0.58 M-h 3Eh MPCLINUX   D802 (138127) 2000 EE14          20150401
D8155   17.2   0.15 K156R 144.74720  281.49191  177.78217   25.44616  0.3196011  0.40525350   1.8084987  1 MPO333863   327  11 1989-2015 0.53 M-v 38h MPCLINUX   1804 (138155) 2000 ES70          20150319
D8175   20.3   0.15 K156R 322.31148  280.86758   25.85912    5.24128  0.2935245  0.97837307   1.0049236  0 MPO329969   745  16 2000-2015 0.63 M-v 3Eh MPCW       8803 (138175) 2000 EE104         20150212
D8205   15.0   0.15 K156R 206.83629  305.57856    4.02292   11.14029  0.6146012  0.23714802   2.5849752  1 MPO333863   637  10 2000-2015 0.54 M-h 3Eh MPCLINUX   1803 (138205) 2000 EZ148         20150324
D8258   19.1   0.15 K156R 179.72194   16.95123  358.13305   32.14004  0.4767088  1.49417888   0.7577646  1 MPO291265   226   9 1998-2014 0.68 M-v 3Eh MPCW       0802 (138258) 2000 GD2           20140321
D8325   16.7   0.15 K156R 248.12084  164.38922  173.34264   25.71287  0.8049012  0.30979170   2.1631644  1 MPO287576   216   9 2000-2014 0.48 M-h 3Eh MPCLINUX   1803 (138325) 2000 GO82          20140224
D8359   17.9   0.15 K156R 317.64428    4.70004   44.01549   20.23925  0.3611863  0.80825249   1.1414004  2 MPO226847   282   7 2000-2012 0.57 M-h 3Eh MPCLINUX   1803 (138359) 2000 GX127         20120402
D8404   19.1   0.15 K156R 263.14022  142.02950  309.59935    2.16954  0.3188631  0.80982553   1.1399218  1 MPO226848   225   9 1989-2012 0.52 M-h 3Eh MPCLINUX   8803 (138404) 2000 HA24          20120325
D8524   16.7   0.15 K156R   2.42405  181.16143  226.68261    6.21804  0.5651529  0.27181386   2.3602336  0 MPO299765   803   7 2000-2014 0.41 M-h 3Eh MPCLINUX   9804 (138524) 2000 OJ8           20140628
D8727   19.0   0.15 K156R 271.81722  135.99016  328.11740   11.88874  0.6072943  0.32306724   2.1034915  0 MPO169939   173   7 2000-2009 0.51 M-v 3Eh MPCADO     C803 (138727) 2000 SU180         20090922
D8815   18.0   0.15 K156R  53.53004  227.97287   20.34364    8.24965  0.3811898  0.32633925   2.0894076  2 MPO245110    73   6 2000-2012 0.47 M-v 38h MPCLINUX   1804 (138815) 2000 TQ64          20121104
D8846   15.8   0.15 K156R 161.25089  280.42876  270.61101   18.67200  0.5628231  0.30515126   2.1850394  1 MPO310118   351   9 2000-2014 0.52 M-h 3Eh MPCLINUX   1803 (138846) 2000 VJ61          20140930
D8847   16.9   0.15 K156R 218.72041   16.22865  207.13278   22.18003  0.2876229  0.47858132   1.6186970  1 MPO325439   573  11 1983-2015 0.47 M-v 38h MPCLINUX   1804 (138847) 2000 VE62          20150120
D8852   20.2   0.15 K156R 313.61641  225.15718   60.93399   21.49251  0.2988033  0.98367958   1.0013063  3 MPO325439   717  15 2000-2014 0.44 M-h 3Eh MPCLINUX   4803 (138852) 2000 WN10          20141222
D8859   18.9   0.15 K156R  47.48220  144.30582   55.94717   13.14854  0.5317099  0.49927656   1.5736516  1 MPO325439   116  12 2000-2014 0.35 M-h 3Eh MPCLINUX   0803 (138859) 2000 WN63          20141230
D8877   16.6   0.15 K156R 199.11204  127.45120   43.98163   25.27219  0.5418064  0.31438030   2.1420643  0 MPO164133   379   4 2000-2009 0.44 M-v 3Eh MPCMEL     5803 (138877) 2000 XG47          20091022
D8883   16.7   0.15 K156R  44.54916  115.86416  182.78510   21.89164  0.3441628  0.51772670   1.5360393  0 MPO280715   892  11 1984-2013 0.47 M-h 3Eh MPCLINUX   1804 (138883) 2000 YL29          20131215
D8893   18.1   0.15 K156R  68.98088  341.33265  265.28886   18.33938  0.7435246  0.77588619   1.1729262  2 MPO329972   273  12 2000-2015 0.54 M-h 3Eh MPCLINUX   1803 (138893) 2000 YH66          20150126
D8911   19.2   0.15 K156R 342.25743   43.09863  171.47060    1.66142  0.0816442  0.62857023   1.3496884  0 MPO329973   471   9 1984-2015 0.49 M-v 38h MPCLINUX   0804 (138911) 2001 AE2           20150119
D8925   15.9   0.15 K156R  83.06786  149.28647  129.31320   72.15904  0.3768845  0.37739843   1.8964264  1 MPO310119   245   7 2001-2014 0.46 M-v 38h MPCLINUX   1804 (138925) 2001 AU43          20140320
D8937   17.4   0.15 K156R 324.13820  252.28120   99.03291   31.83501  0.6783641  0.33038460   2.0723170  1 MPO333867   230  11 1998-2015 0.43 M-h 3Eh MPCLINUX   1803 (138937) 2001 BK16          20150401
D8947   18.7   0.15 K156R 306.47538  359.99578  270.91594   12.84482  0.2537434  0.83265007   1.1189939  1 MPO329973   312   8 2001-2015 0.51 M-h 3Eh MPCLINUX   0803 (138947) 2001 BA40          20150201
D8971   18.4   0.15 K156R 169.94969  271.74792  353.76976    7.90212  0.3335707  0.93666055   1.0345414  1 MPO214609  1088  10 2001-2011 0.43 M-h 3Eh MPCLINUX   8803 (138971) 2001 CB21          20110114
D9047   17.2   0.15 K156R 232.90173  346.23590  149.56077   46.99959  0.3861526  0.38791426   1.8619966  1 MPO306070   118   7 2001-2014 0.43 M-v 38h MPCLINUX   1804 (139047) 2001 EB16          20140627
